ESO_L_00002001-01
1 10000U 22131HG  26075.69960648  .00000000  00000+0  00000-0 0  9997
2 10000  65.8000   0.0000 0000000   0.0000   0.0000 15.55740824    14
